<?xml version="1.0" encoding="utf-8" ?>
<kml xmlns="http://www.opengis.net/kml/2.2">
<Document id="root_doc">
<Schema name="area_do_imovel__area_imovel_1shp" id="area_do_imovel__area_imovel_1shp">
	<SimpleField name="fid" type="float"></SimpleField>
	<SimpleField name="cod_tema" type="string"></SimpleField>
	<SimpleField name="nom_tema" type="string"></SimpleField>
	<SimpleField name="cod_imovel" type="string"></SimpleField>
	<SimpleField name="mod_fiscal" type="float"></SimpleField>
	<SimpleField name="num_area" type="float"></SimpleField>
	<SimpleField name="ind_status" type="string"></SimpleField>
	<SimpleField name="ind_tipo" type="string"></SimpleField>
	<SimpleField name="des_condic" type="string"></SimpleField>
	<SimpleField name="municipio" type="string"></SimpleField>
	<SimpleField name="cod_estado" type="string"></SimpleField>
	<SimpleField name="dat_criaca" type="string"></SimpleField>
	<SimpleField name="dat_atuali" type="string"></SimpleField>
</Schema>
<Folder><name>area_do_imovel__area_imovel_1shp</name>
  <Placemark>
	<Style><LineStyle><color>ff0000ff</color></LineStyle><PolyStyle><fill>0</fill></PolyStyle></Style>
	<ExtendedData><SchemaData schemaUrl="#area_do_imovel__area_imovel_1shp">
		<SimpleData name="fid">1</SimpleData>
		<SimpleData name="cod_tema">AREA_IMOVEL</SimpleData>
		<SimpleData name="nom_tema">Area do Imovel</SimpleData>
		<SimpleData name="cod_imovel">PB-2501302-74F32547718F4485A341079C2F49538B</SimpleData>
		<SimpleData name="mod_fiscal">3.446</SimpleData>
		<SimpleData name="num_area">206.7572</SimpleData>
		<SimpleData name="ind_status">AT</SimpleData>
		<SimpleData name="ind_tipo">IRU</SimpleData>
		<SimpleData name="des_condic">Aguardando analise</SimpleData>
		<SimpleData name="municipio">Aroeiras</SimpleData>
		<SimpleData name="cod_estado">PB</SimpleData>
		<SimpleData name="dat_criaca">22/08/2022</SimpleData>
		<SimpleData name="dat_atuali">13/11/2022</SimpleData>
	</SchemaData></ExtendedData>
      <MultiGeometry><Polygon><outerBoundaryIs><LinearRing><coordinates>-35.778259704946,-7.4802462332978 -35.7770394163333,-7.48018093774224 -35.7770196055,-7.48049239663115 -35.7769991360555,-7.48082995440893 -35.7769700829999,-7.4817839096867 -35.7769372149443,-7.48277294663112 -35.7769218160555,-7.48326357774225 -35.7769285379999,-7.48369339663112 -35.7769303429999,-7.48419735496447 -35.7769108221666,-7.48477187024225 -35.7768406232776,-7.48561537385333 -35.7768296213331,-7.48584955163115 -35.7767940143887,-7.48679019385336 -35.7767638996664,-7.48724565274223 -35.7767436235552,-7.48771501802002 -35.776744191333,-7.48790476802003 -35.7767285632775,-7.48853620885335 -35.7766838702219,-7.48924843857555 -35.7766347607774,-7.49045390440888 -35.776612519944,-7.4909488166311 -35.7766012810552,-7.49149408607553 -35.7765326957773,-7.49300750357556 -35.7765216538328,-7.49338660996443 -35.7765156210551,-7.49397035579779 -35.7765114652217,-7.4941916869089 -35.7765195188328,-7.49461819940891 -35.7766195974441,-7.49493004913113 -35.7766748582776,-7.49513704552002 -35.7766767646665,-7.49527780579778 -35.776569563833,-7.49564194218663 -35.7764799304995,-7.49591245996444 -35.7764524513328,-7.49601209579775 -35.7764181091106,-7.49651718579775 -35.7763804741105,-7.49739965302 -35.776348288555,-7.49803634913112 -35.7763095302215,-7.49861446468664 -35.7762977057771,-7.49888130163107 -35.7762940318882,-7.49922425607551 -35.7762676135549,-7.49965958774222 -35.7762525329993,-7.50006965718662 -35.7754636127205,-7.49997053385334 -35.7752536665592,-7.4999568242591 -35.7752101676244,-7.50165918637211 -35.7752286243454,-7.50258320539571 -35.7750963268868,-7.50357606385336 -35.7748691243865,-7.50358817885331 -35.7747897110531,-7.50416127524223 -35.7746788774418,-7.50491633607554 -35.7745626599417,-7.50580884246442 -35.7744765999416,-7.50635172107556 -35.7743784404971,-7.5070466707978 -35.7743420135526,-7.50735564246442 -35.7742464282747,-7.50797111801998 -35.7742373610524,-7.50803177607557 -35.77410419633,-7.50897866579779 -35.7754387246651,-7.50904938968665 -35.7765180607776,-7.50910346301996 -35.7765909718888,-7.50864907051992 -35.7766196046666,-7.50843605051994 -35.7761130629993,-7.50836449496438 -35.7756281241097,-7.50827885107553 -35.7756344988319,-7.50821196663107 -35.7757665429988,-7.50736007440885 -35.7759514693879,-7.50609168468664 -35.7760779763325,-7.50529452829777 -35.7770327752226,-7.50543630246438 -35.777099486056,-7.50492924579776 -35.7772038580006,-7.50390432913108 -35.7796133585591,-7.5042695788532 -35.7796658949481,-7.50331040829768 -35.779683176337,-7.50311773635321 -35.7797009391148,-7.50285837079765 -35.7797367924481,-7.50196352024213 -35.7798205380038,-7.50054259607544 -35.7798727155039,-7.49961495246434 -35.7799146946705,-7.49863663940878 -35.7799344193928,-7.49834111996434 -35.7801500585598,-7.49835914607544 -35.7817359738396,-7.49857881996429 -35.782361815507,-7.49867016413096 -35.782803777452,-7.49872501218651 -35.7838725291201,-7.49885082996428 -35.7838854052312,-7.49872729801983 -35.7839019788423,-7.49827690551979 -35.7839485082868,-7.49664421496428 -35.7839697468979,-7.49566571079761 -35.7839932416202,-7.49526997496426 -35.7839976949535,-7.49500916746427 -35.7839899024534,-7.49488416690871 -35.7840723946757,-7.49203892607539 -35.7840985163424,-7.49143236913097 -35.7841430666203,-7.49060145496429 -35.7841565916203,-7.49010539913092 -35.7842049796759,-7.48877960190874 -35.7843221557871,-7.48599542885317 -35.7843603591205,-7.48527658496429 -35.7843851771761,-7.48467678551984 -35.7843935827316,-7.48418681551985 -35.7844451705094,-7.48318179968655 -35.7845139355095,-7.4815424096865 -35.7845434746762,-7.48070195913099 -35.784405174676,-7.48068373246432 -35.7831862143967,-7.48058455440881 -35.7800227685594,-7.48036498801998 -35.7793455007807,-7.48032294496446 -35.778259704946,-7.4802462332978</coordinates></LinearRing></outerBoundaryIs></Polygon></MultiGeometry>
  </Placemark>
</Folder>
</Document></kml>
