<?xml version="1.0" encoding="utf-8" ?>
<kml xmlns="http://www.opengis.net/kml/2.2">
<Document id="root_doc">
<Schema name="seridook" id="seridook">
	<SimpleField name="fid" type="float"></SimpleField>
	<SimpleField name="descriptio" type="string"></SimpleField>
	<SimpleField name="timestamp" type="string"></SimpleField>
	<SimpleField name="begin" type="string"></SimpleField>
	<SimpleField name="end" type="string"></SimpleField>
	<SimpleField name="altitudeMo" type="string"></SimpleField>
	<SimpleField name="tessellate" type="float"></SimpleField>
	<SimpleField name="extrude" type="float"></SimpleField>
	<SimpleField name="visibility" type="float"></SimpleField>
	<SimpleField name="drawOrder" type="float"></SimpleField>
	<SimpleField name="icon" type="string"></SimpleField>
	<SimpleField name="descript_1" type="string"></SimpleField>
	<SimpleField name="altitude_1" type="string"></SimpleField>
	<SimpleField name="Area_Km2" type="float"></SimpleField>
	<SimpleField name="Pop_estim" type="float"></SimpleField>
	<SimpleField name="Dens_demog" type="float"></SimpleField>
	<SimpleField name="Latitude" type="float"></SimpleField>
	<SimpleField name="Longitude" type="float"></SimpleField>
	<SimpleField name="Lat_GMS" type="string"></SimpleField>
	<SimpleField name="Long_GMS" type="string"></SimpleField>
	<SimpleField name="Nome" type="string"></SimpleField>
	<SimpleField name="Mesorreg" type="string"></SimpleField>
	<SimpleField name="Microrreg" type="string"></SimpleField>
	<SimpleField name="Gant_lico" type="string"></SimpleField>
	<SimpleField name="Geocod_Mun" type="string"></SimpleField>
	<SimpleField name="CD_MUN" type="string"></SimpleField>
	<SimpleField name="NM_MUN" type="string"></SimpleField>
	<SimpleField name="SIGLA_UF" type="string"></SimpleField>
	<SimpleField name="layer" type="string"></SimpleField>
	<SimpleField name="path" type="string"></SimpleField>
</Schema>
<Folder><name>seridook</name>
  <Placemark>
	<Style><LineStyle><color>ff0000ff</color></LineStyle><PolyStyle><fill>0</fill></PolyStyle></Style>
	<ExtendedData><SchemaData schemaUrl="#seridook">
		<SimpleData name="fid">1</SimpleData>
		<SimpleData name="tessellate">-1</SimpleData>
		<SimpleData name="extrude">0</SimpleData>
		<SimpleData name="visibility">-1</SimpleData>
		<SimpleData name="drawOrder">0</SimpleData>
		<SimpleData name="Area_Km2">661.657000000000039</SimpleData>
		<SimpleData name="Pop_estim">18703.000000000000000</SimpleData>
		<SimpleData name="Dens_demog">27.539999999999999</SimpleData>
		<SimpleData name="Latitude">-6.493270000000000</SimpleData>
		<SimpleData name="Longitude">-36.336500000000001</SimpleData>
		<SimpleData name="Lat_GMS">-6?29'36&quot;</SimpleData>
		<SimpleData name="Long_GMS">-36?20'12&quot;</SimpleData>
		<SimpleData name="Nome">Picu?</SimpleData>
		<SimpleData name="Mesorreg">Borborema</SimpleData>
		<SimpleData name="Microrreg">Serid? Oriental Paraibano</SimpleData>
		<SimpleData name="Gant_lico">Picu?ense</SimpleData>
		<SimpleData name="Geocod_Mun">2511400</SimpleData>
		<SimpleData name="layer">SeridoPB</SimpleData>
		<SimpleData name="path">C:\Users\damas\OneDrive\2025_1\MARIANNA 2025\SERIDO PB_RN\SeridoPB.shp</SimpleData>
	</SchemaData></ExtendedData>
      <MultiGeometry><Polygon><outerBoundaryIs><LinearRing><coordinates>-36.922571271,-7.09267030099994,0 -36.9218514679999,-7.09077554099997,0 -36.922273977,-7.08949908299997,0 -36.922842122,-7.08865761599999,0 -36.922776079,-7.08767595199992,0 -36.921847537,-7.08548006499996,0 -36.920007824,-7.08234994699995,0 -36.917805001,-7.08065094699998,0 -36.916625739,-7.08062506299996,0 -36.929588031,-7.05786996299997,0 -36.934456148,-7.04932315999998,0 -36.9375524279999,-7.04721702299997,0 -36.9390285859999,-7.04568167299994,0 -36.9415545599999,-7.04496132399993,0 -36.943832974,-7.04497076099995,0 -36.9485384229999,-7.04816456899994,0 -36.95325617,-7.04867359899993,0 -36.959416092,-7.04806800599994,0 -36.967852277,-7.05184050399993,0 -36.9757032099999,-7.05732822199997,0 -36.982112941,-7.05692285299994,0 -36.9881640789999,-7.05887592499995,0 -36.9934174649999,-7.06169153599996,0 -36.9974428579999,-7.06127470899998,0 -37.000643023,-7.05627991299996,0 -37.005232983,-7.05187182399992,0 -37.0187627189999,-7.04870440299994,0 -37.0249581059999,-7.04821261499996,0 -37.0291536199999,-7.04554491199997,0 -37.031645779,-7.04492492399993,0 -37.033387939,-7.04379843499993,0 -37.038849016,-7.04191759699995,0 -37.04393634,-7.04128707799992,0 -37.0531590589999,-7.03937094799995,0 -37.059309426,-7.03762885599997,0 -37.059983173,-7.03707292299992,0 -37.060275352,-7.03577180299994,0 -37.0601894709999,-7.03363109199995,0 -37.058762595,-7.03046132399993,0 -37.0556144029999,-7.02626066699997,0 -37.055911083,-7.02449662899994,0 -37.0624472649999,-7.02135813999997,0 -37.064080694,-7.02127071799993,0 -37.0678282229999,-7.01998244499993,0 -37.07129578,-7.01711377799995,0 -37.0714969909999,-7.01460043199995,0 -37.072557495,-7.01367440899997,0 -37.073227405,-7.01358394699998,0 -37.077445266,-7.01518415699996,0 -37.0806006829999,-7.01761672799996,0 -37.085859796,-7.02275704799997,0 -37.087199383,-7.02341137599995,0 -37.093144061,-7.02358308399993,0 -37.0985242429999,-7.02373782299998,0 -37.104580023,-7.02096663799995,0 -37.1091142189999,-7.01577808299992,0 -37.115173262,-7.01254415799997,0 -37.118708168,-7.01153569599995,0 -37.124871742,-7.01100116499992,0 -37.126699441,-7.01026341699997,0 -37.12930004,-7.00794822799998,0 -37.130099757,-7.00246181499995,0 -37.1388052139999,-7.00258855899994,0 -37.140744523,-7.00203839799997,0 -37.145372056,-6.99647316299997,0 -37.1525922339999,-6.99119613199998,0 -37.154801823,-6.99045983099995,0 -37.1590272559999,-6.98991929199997,0 -37.1634513719999,-6.98742547699992,0 -37.165756799,-6.98659341899998,0 -37.1729289049999,-6.98226025099995,0 -37.173013183,-6.98220933799995,0 -37.1743310909999,-6.97332672299995,0 -37.17814764,-6.96948563599995,0 -37.180976385,-6.96472299899995,0 -37.1802807139999,-6.96023139399995,0 -37.178285494,-6.95386120399996,0 -37.175778335,-6.94979826099996,0 -37.1735015629999,-6.94738230399996,0 -37.173329026,-6.94447403199996,0 -37.173981386,-6.94317475399993,0 -37.176648304,-6.94215138399995,0 -37.179091818,-6.94062491599993,0 -37.181422969,-6.93760519299998,0 -37.181690292,-6.93725890799994,0 -37.1834545409999,-6.93618128499997,0 -37.192714173,-6.93617217399997,0 -37.1933655629999,-6.93591400799994,0 -37.193645701,-6.93513472399996,0 -37.1933722549999,-6.93426548599997,0 -37.188384331,-6.93021037199998,0 -37.1810861559999,-6.92649090899994,0 -37.178135797,-6.92240284199994,0 -37.1777725749999,-6.92049287399992,0 -37.17879928,-6.91845562999993,0 -37.18056094,-6.91794179999994,0 -37.189172873,-6.91793081399993,0 -37.1904739629999,-6.91758267299996,0 -37.192518198,-6.91494973599994,0 -37.196140793,-6.91235887499993,0 -37.197735947,-6.90668033899994,0 -37.19829214,-6.90624876899994,0 -37.212554468,-6.90638711299993,0 -37.213382058,-6.88651038999995,0 -37.214450816,-6.86972774199996,0 -37.2179775819999,-6.85345176799996,0 -37.2229058459999,-6.84252304599993,0 -37.232029616,-6.82670096099998,0 -37.235891072,-6.82359768099999,0 -37.252040084,-6.81308284799999,0 -37.255143909,-6.81106148800001,0 -37.256397153,-6.80411669200001,0 -37.255240713,-6.79940418600001,0 -37.255417022,-6.79846914199998,0 -37.257230074,-6.79282226199998,0 -37.26059234,-6.787359406,0 -37.257491157,-6.783948769,0 -37.257068577,-6.782951347,0 -37.257326769,-6.78039585799999,0 -37.257897369,-6.779467764,0 -37.265072621,-6.77328527800001,0 -37.271032301,-6.77046574900001,0 -37.272310504,-6.76943852299999,0 -37.273949285,-6.76679037400001,0 -37.27165478,-6.764822317,0 -37.269362953,-6.76198547999999,0 -37.269292156,-6.76048144899999,0 -37.268282693,-6.758033706,0 -37.268001591,-6.75548679600002,0 -37.266987887,-6.75261843000002,0 -37.268023246,-6.749993778,0 -37.267288857,-6.747607709,0 -37.267976021,-6.74396032800001,0 -37.265271854,-6.74049218499999,0 -37.26494772,-6.738981605,0 -37.264217494,-6.73800191800002,0 -37.264384551,-6.734546672,0 -37.263920789,-6.732170006,0 -37.271806981,-6.728605792,0 -37.279917809,-6.72423385199999,0 -37.285635589,-6.716328078,0 -37.290167258,-6.71304391600001,0 -37.288864134,-6.70651049700002,0 -37.287694741,-6.70648877,0 -37.283715994,-6.69391482700002,0 -37.298266712,-6.69156441600001,0 -37.298808538,-6.69147688499998,0 -37.314298924,-6.68897443,0 -37.331982531,-6.69813709100001,0 -37.33840948,-6.700605684,0 -37.342712914,-6.701246403,0 -37.348076287,-6.70125470900001,0 -37.353439941,-6.70126301400001,0 -37.362469459,-6.70062369100001,0 -37.367526995,-6.701205869,0 -37.378355707,-6.70038067799999,0 -37.381093608,-6.700434456,0 -37.383831582,-6.70048823600002,0 -37.388320609,-6.69982762999999,0 -37.39569975,-6.700374236,0 -37.395835517,-6.70035413900001,0 -37.399970143,-6.69972903000001,0 -37.407334101,-6.69719536599999,0 -37.426979042,-6.70045717700001,0 -37.446305256,-6.70366424799999,0 -37.455873261,-6.70525224200001,0 -37.484699542,-6.71003737399999,0 -37.482046688,-6.70460956799999,0 -37.478069537,-6.69517093600001,0 -37.475990295,-6.689045169,0 -37.470981634,-6.68033670099998,0 -37.470864822,-6.67952577800001,0 -37.472166828,-6.67769449599999,0 -37.474956389,-6.674500934,0 -37.475201546,-6.672822367,0 -37.470837237,-6.66930033400001,0 -37.468151048,-6.665634304,0 -37.467138221,-6.66359126000001,0 -37.466190907,-6.65995952799999,0 -37.473623825,-6.649342115,0 -37.476363214,-6.644796358,0 -37.47721587,-6.641910813,0 -37.477408818,-6.63744453999999,0 -37.47453294,-6.617914162,0 -37.476000272,-6.608113904,0 -37.47876017,-6.607282629,0 -37.480021062,-6.60617798999999,0 -37.480384083,-6.605217824,0 -37.479743667,-6.59989491300001,0 -37.479741759,-6.599879051,0 -37.480118566,-6.594151781,0 -37.479853233,-6.592629652,0 -37.478534451,-6.585065732,0 -37.47860941,-6.578225027,0 -37.474814992,-6.56445086700001,0 -37.475057391,-6.56349153299999,0 -37.476019413,-6.56265403,0 -37.478717765,-6.56170292799998,0 -37.48058276,-6.55982006799999,0 -37.481907475,-6.55724538100001,0 -37.4829406,-6.55328869400001,0 -37.483128355,-6.55041086800001,0 -37.482357396,-6.54771093400001,0 -37.473666927,-6.537595609,0 -37.468136454,-6.533934614,0 -37.464724524,-6.532663686,0 -37.44489555,-6.53307052499999,0 -37.444546536,-6.53307738199998,0 -37.436564361,-6.53324201699999,0 -37.436454585,-6.53324241699999,0 -37.436186488,-6.53324339299999,0 -37.421187176,-6.53329801500001,0 -37.419292196,-6.53317114999999,0 -37.415709619,-6.531880108,0 -37.411700175,-6.52953064499999,0 -37.399986633,-6.51948924800001,0 -37.396891399,-6.51420737999998,0 -37.396214979,-6.51251416799999,0 -37.395785665,-6.51009315100002,0 -37.394681245,-6.49148874599999,0 -37.39401804,-6.48031457499999,0 -37.393536306,-6.472200748,0 -37.391745402,-6.462455939,0 -37.390952312,-6.452842412,0 -37.388001687,-6.44863364299999,0 -37.387556913,-6.44513987600002,0 -37.385835335,-6.44152720700001,0 -37.381243643,-6.43710938,0 -37.381246586,-6.43709648800001,0 -37.381312617,-6.43679886699999,0 -37.38149427,-6.43597527299999,0 -37.381515192,-6.435880221,0 -37.381679541,-6.435135186,0 -37.382786164,-6.433604841,0 -37.384353433,-6.43276969700001,0 -37.385154428,-6.431615364,0 -37.385571626,-6.428574562,0 -37.386595062,-6.42603770400001,0 -37.389064315,-6.42372679199999,0 -37.39577409,-6.420122333,0 -37.397519984,-6.418098752,0 -37.397595013,-6.41719239800001,0 -37.39766988,-6.41628580099999,0 -37.39548118,-6.40990001800001,0 -37.397161218,-6.405063149,0 -37.396123935,-6.40114410800002,0 -37.393602454,-6.39700453500002,0 -37.38883101,-6.39097934299999,0 -37.388451845,-6.389513831,0 -37.388213998,-6.387222482,0 -37.388548901,-6.379733939,0 -37.382448662,-6.373414846,0 -37.38244585,-6.373411501,0 -37.382001228,-6.373041708,0 -37.381960794,-6.37300807899999,0 -37.377540958,-6.369332095,0 -37.376316948,-6.35577188600002,0 -37.377812296,-6.35087692900001,0 -37.377846783,-6.35043859899999,0 -37.37811805,-6.34700642600001,0 -37.377328835,-6.34439261200001,0 -37.371961722,-6.33654671900001,0 -37.370596509,-6.33255547400001,0 -37.366811869,-6.32739669299999,0 -37.36652789,-6.325582712,0 -37.363353266,-6.32216560399998,0 -37.35497369,-6.317349729,0 -37.351105644,-6.31436916400001,0 -37.343040473,-6.31209597099999,0 -37.334802103,-6.30882083200001,0 -37.333957966,-6.30834002399999,0 -37.330424407,-6.30632760700001,0 -37.328192312,-6.303204027,0 -37.321450168,-6.282812181,0 -37.319938916,-6.280559173,0 -37.318523648,-6.279654736,0 -37.318325397,-6.27952803900001,0 -37.316975565,-6.27866546100001,0 -37.315094528,-6.278152177,0 -37.309775937,-6.27777507900002,0 -37.306458103,-6.27806510199999,0 -37.304200287,-6.27826248,0 -37.301009957,-6.27962836399998,0 -37.286849211,-6.282265623,0 -37.278666554,-6.282455687,0 -37.274726523,-6.28142612400001,0 -37.27313861,-6.279972249,0 -37.272863942,-6.27489600300001,0 -37.273497672,-6.26982415399999,0 -37.27301278,-6.263152328,0 -37.270552478,-6.251714376,0 -37.264824108,-6.24357573600001,0 -37.259451994,-6.23778637600001,0 -37.251527379,-6.22645827900001,0 -37.245068141,-6.22056626299999,0 -37.240731025,-6.21888401000001,0 -37.234271501,-6.21327833699998,0 -37.234145279,-6.21325292,0 -37.233603222,-6.21314376500002,0 -37.212679925,-6.20893043300001,0 -37.201581323,-6.205703989,0 -37.199675391,-6.204084602,0 -37.197768639,-6.20246462,0 -37.194238499,-6.19824709900002,0 -37.193520911,-6.19585246400001,0 -37.193523799,-6.18425308600002,0 -37.192943941,-6.183079772,0 -37.188507438,-6.18066626500001,0 -37.180907427,-6.180922428,0 -37.174221023,-6.18010361699998,0 -37.165683499,-6.170374489,0 -37.163453441,-6.166168316,0 -37.162419501,-6.15986368399998,0 -37.161339059,-6.15752795000001,0 -37.15692297,-6.15248822999998,0 -37.155331616,-6.15208273299999,0 -37.151548657,-6.15236124699999,0 -37.145620742,-6.15060070199998,0 -37.143411652,-6.15084785499999,0 -37.140386084,-6.15235655500002,0 -37.132963376,-6.15418217000001,0 -37.130267185,-6.156012031,0 -37.126675741,-6.156877155,0 -37.128192424,-6.158078361,0 -37.129680211,-6.161309918,0 -37.135305293,-6.16729763500002,0 -37.137015146,-6.16984136900002,0 -37.137228821,-6.170748147,0 -37.136682578,-6.171617107,0 -37.133162919,-6.17457618099999,0 -37.133196007,-6.17544797299998,0 -37.139171439,-6.17905381800001,0 -37.140719625,-6.18095180500002,0 -37.140601637,-6.18307496000001,0 -37.139820536,-6.183381661,0 -37.138184864,-6.18272650000001,0 -37.136942417,-6.183125843,0 -37.136522444,-6.184334271,0 -37.132886095,-6.18767467200001,0 -37.13267117,-6.18804484,0 -37.130859289,-6.19116545599999,0 -37.12919499,-6.19255012999999,0 -37.129514405,-6.19326064899999,0 -37.132101929,-6.195052474,0 -37.133176168,-6.197838974,0 -37.132672962,-6.19932235600002,0 -37.13282691,-6.200337483,0 -37.13419554,-6.201998543,0 -37.133885534,-6.203129617,0 -37.131707155,-6.20544043899999,0 -37.132090393,-6.20765253400001,0 -37.131947542,-6.20842615699999,0 -37.131656109,-6.20876764900001,0 -37.130465876,-6.20928029000002,0 -37.127325838,-6.20865440099999,0 -37.126349073,-6.20921864699999,0 -37.124994463,-6.20815296899999,0 -37.124402917,-6.206450615,0 -37.123289706,-6.20599162900002,0 -37.12130189,-6.20747723799999,0 -37.118412383,-6.20742793599999,0 -37.116569809,-6.20619040299999,0 -37.116126344,-6.207529762,0 -37.116566993,-6.21149011599999,0 -37.116124256,-6.21344003600001,0 -37.115629,-6.21390360199998,0 -37.114472803,-6.21412145,0 -37.113109751,-6.215436092,0 -37.112151401,-6.215630496,0 -37.110753295,-6.215836578,0 -37.105944016,-6.21483594099998,0 -37.104178061,-6.21575485499999,0 -37.103770969,-6.21735971900001,0 -37.104482612,-6.21941946300001,0 -37.104393657,-6.220008171,0 -37.104003152,-6.22091457100001,0 -37.102277299,-6.223197019,0 -37.099232783,-6.22436711399999,0 -37.097499283,-6.22624772899999,0 -37.097157919,-6.22700556999999,0 -37.097091697,-6.231186807,0 -37.096527784,-6.23211296999999,0 -37.095622304,-6.23245716400001,0 -37.093523253,-6.23181859300002,0 -37.090031734,-6.23530042,0 -37.086663336,-6.23460716700001,0 -37.085420984,-6.234940088,0 -37.084784687,-6.23685334499999,0 -37.082631101,-6.238388646,0 -37.08162633,-6.24064430300001,0 -37.080910091,-6.240649994,0 -37.079232604,-6.238662086,0 -37.075702613,-6.23812591800001,0 -37.073967278,-6.23849301799998,0 -37.071766248,-6.23653500899999,0 -37.070079781,-6.237475872,0 -37.062943351,-6.21821770100001,0 -37.045715619,-6.22391568800001,0 -37.04512743,-6.22403840699999,0 -37.033357631,-6.22649405000001,0 -37.01663167,-6.22281636199999,0 -37.003119497,-6.221691682,0 -36.990823576,-6.21301527399998,0 -36.987533618,-6.20940718399999,0 -36.984663794,-6.20520370500001,0 -36.981645824,-6.203405161,0 -36.979992528,-6.201783852,0 -36.977222949,-6.19719802200001,0 -36.973665573,-6.19251269500001,0 -36.971055718,-6.19130497099999,0 -36.968099937,-6.19071840399999,0 -36.959087585,-6.19119004399999,0 -36.957317117,-6.19076382700001,0 -36.952157737,-6.19408088299999,0 -36.950230951,-6.19559522500001,0 -36.941276193,-6.20328528300001,0 -36.938199996,-6.20655328399998,0 -36.931918727,-6.21189615899999,0 -36.926930511,-6.21575281599999,0 -36.923821561,-6.22089257100001,0 -36.923199963,-6.22316506600001,0 -36.922860583,-6.22559531999999,0 -36.923063153,-6.233037414,0 -36.924054302,-6.23894615300001,0 -36.923024547,-6.23894537199998,0 -36.901153679,-6.23893127700001,0 -36.894420896,-6.238927264,0 -36.895322765,-6.239400602,0 -36.89466368,-6.239914628,0 -36.893369509,-6.23995321000002,0 -36.89314953,-6.24055712300001,0 -36.892457839,-6.24085614300001,0 -36.891378253,-6.24093950799999,0 -36.89044716,-6.24169281400001,0 -36.889968472,-6.24259793600002,0 -36.890007358,-6.243273999,0 -36.889834945,-6.244023185,0 -36.88927208,-6.243848861,0 -36.888364548,-6.24427541599998,0 -36.888531771,-6.24535830100001,0 -36.888096994,-6.246004016,0 -36.886304361,-6.24653726400002,0 -36.88478817,-6.24769850300002,0 -36.884025544,-6.247738847,0 -36.883406269,-6.24795344599999,0 -36.881717995,-6.24885287099999,0 -36.881044325,-6.24969294600001,0 -36.88073945,-6.250427567,0 -36.880091792,-6.25081452000001,0 -36.879054933,-6.25080904399999,0 -36.878150364,-6.25041700899999,0 -36.876637191,-6.250973603,0 -36.875945998,-6.25101355000001,0 -36.875319483,-6.251551873,0 -36.875356302,-6.252719855,0 -36.874579274,-6.25275798300002,0 -36.873287454,-6.25188868899999,0 -36.871778512,-6.25132014299999,0 -36.869896117,-6.25237191499999,0 -36.868985853,-6.25336391600001,0 -36.86885221,-6.25435676399999,0 -36.869231542,-6.25660692100001,0 -36.868494347,-6.257640687,0 -36.867477294,-6.25817629200001,0 -36.866439456,-6.25838814299999,0 -36.86535723,-6.25924912400001,0 -36.864150389,-6.258812095,0 -36.863332119,-6.25803120299999,0 -36.862511252,-6.25824376,0 -36.862184958,-6.258994947,0 -36.861901151,-6.260446477,0 -36.860960349,-6.26288397100002,0 -36.860049121,-6.263874974,0 -36.858492326,-6.264515757,0 -36.857282453,-6.264814849,0 -36.856421758,-6.26403261999999,0 -36.855558802,-6.26385577600001,0 -36.85411099,-6.264347498,0 -36.85320087,-6.265251003,0 -36.852671776,-6.267971491,0 -36.852322291,-6.268792055,0 -36.851716106,-6.26939496800001,0 -36.850870209,-6.269759107,0 -36.850268889,-6.26941113699999,0 -36.85031569,-6.26871882200002,0 -36.848724482,-6.26694104300001,0 -36.849071384,-6.26646600099999,0 -36.849334256,-6.26534391999999,0 -36.848626339,-6.26467042499999,0 -36.847373553,-6.26457837699998,0 -36.846501113,-6.26678047900001,0 -36.845850098,-6.267640941,0 -36.844899108,-6.26798445399999,0 -36.84354439,-6.266487811,0 -36.840949333,-6.26783378600001,0 -36.839824819,-6.26841703700001,0 -36.837681056,-6.269812689,0 -36.836812535,-6.27106294300001,0 -36.836806696,-6.27222938,0 -36.838436661,-6.275564722,0 -36.837890399,-6.27688310100002,0 -36.836722507,-6.27722233500001,0 -36.835723422,-6.278990704,0 -36.835377538,-6.28398927500001,0 -36.834506432,-6.28571398799999,0 -36.832691749,-6.28635500900001,0 -36.831226029,-6.285873302,0 -36.829965929,-6.284149201,0 -36.827872423,-6.28466625699999,0 -36.82629122,-6.287148005,0 -36.825367966,-6.28923644400001,0 -36.823995043,-6.289299772,0 -36.822164027,-6.288898346,0 -36.821242668,-6.29007399700001,0 -36.821500377,-6.291383747,0 -36.821738539,-6.29169342300001,0 -36.821780567,-6.29174807099999,0 -36.822059487,-6.292110745,0 -36.822060756,-6.292112395,0 -36.82206685,-6.292120314,0 -36.822409813,-6.292565927,0 -36.82203371,-6.29293860300002,0 -36.821423713,-6.29354293700002,0 -36.819852839,-6.294191484,0 -36.819063549,-6.29549769499999,0 -36.818926892,-6.29667637000001,0 -36.816835561,-6.29640522899999,0 -36.81662704,-6.298957712,0 -36.815837009,-6.30065789,0 -36.815435921,-6.30262059699999,0 -36.816216851,-6.30367058300001,0 -36.815037229,-6.30405857599998,0 -36.814383251,-6.30369154199999,0 -36.797506827,-6.30153506599998,0 -36.772873555,-6.29838741599999,0 -36.754153612,-6.32054314800001,0 -36.752368722,-6.316722269,0 -36.748482131,-6.31449700699999,0 -36.746179228,-6.31101566300002,0 -36.744738933,-6.31053282199999,0 -36.743295308,-6.30752117500001,0 -36.740373881,-6.30491464400001,0 -36.738560014,-6.30180740000001,0 -36.716394915,-6.3009969,0 -36.715750458,-6.295258467,0 -36.715350407,-6.29468576900001,0 -36.713493597,-6.29435343799999,0 -36.713567637,-6.29101123500002,0 -36.71326189,-6.290032124,0 -36.712946241,-6.289370364,0 -36.710652527,-6.28689152800002,0 -36.710023971,-6.27809497699999,0 -36.709589751,-6.27695691299999,0 -36.707840355,-6.27689731300001,0 -36.705172092,-6.27577956300001,0 -36.703030553,-6.27427513999998,0 -36.701655848,-6.27404562500001,0 -36.700046182,-6.275461799,0 -36.699422735,-6.27656047900002,0 -36.699307509,-6.27676353699999,0 -36.698588159,-6.276858506,0 -36.697631295,-6.27654610600001,0 -36.696368479,-6.274993204,0 -36.69571843,-6.274193829,0 -36.692884425,-6.27260612699999,0 -36.692052211,-6.272590214,0 -36.689598574,-6.27457505999999,0 -36.68728557,-6.273673696,0 -36.686919189,-6.27258895799999,0 -36.685981437,-6.27182109300001,0 -36.685278351,-6.27191656900001,0 -36.684866341,-6.271801424,0 -36.683066579,-6.27040484700001,0 -36.681594159,-6.26980530399999,0 -36.677957449,-6.27132338099999,0 -36.675618294,-6.26996862799999,0 -36.673742561,-6.27147048599999,0 -36.673493016,-6.27359577799998,0 -36.672502019,-6.275269235,0 -36.670245487,-6.275365701,0 -36.662532871,-6.27851888000001,0 -36.660703429,-6.27794258500001,0 -36.660442585,-6.27713302099999,0 -36.65965342,-6.276517002,0 -36.658545089,-6.276696495,0 -36.657973602,-6.27608737599998,0 -36.657305258,-6.27415471300001,0 -36.655465761,-6.27384724900001,0 -36.655418046,-6.272620456,0 -36.655255751,-6.272394663,0 -36.654743746,-6.27221577399999,0 -36.651988678,-6.273410044,0 -36.645843958,-6.27059363000001,0 -36.645248438,-6.270451038,0 -36.639808745,-6.271303197,0 -36.632046045,-6.268632895,0 -36.630612481,-6.268513068,0 -36.629603522,-6.26927881399999,0 -36.62835506,-6.27112797099999,0 -36.628281965,-6.27146827100001,0 -36.629025045,-6.27520871999999,0 -36.628204945,-6.276823982,0 -36.628101439,-6.28038357400002,0 -36.62702752,-6.28233336499999,0 -36.626221932,-6.285531475,0 -36.625993881,-6.28588068699999,0 -36.625068769,-6.28643874900001,0 -36.623375139,-6.28599039900002,0 -36.621083547,-6.28708294300001,0 -36.619680085,-6.28814313500002,0 -36.618826223,-6.29081873800002,0 -36.617507102,-6.292319339,0 -36.615470444,-6.29330567299999,0 -36.613839896,-6.29307468299998,0 -36.604592883,-6.29036835900002,0 -36.606821791,-6.28941848700001,0 -36.607904218,-6.28706696000001,0 -36.606785724,-6.278321497,0 -36.60490146,-6.27466975199999,0 -36.5964238,-6.26225680799998,0 -36.591645954,-6.247734503,0 -36.591879135,-6.24529470799999,0 -36.592933186,-6.24463602000001,0 -36.595868475,-6.24464926300002,0 -36.597451331,-6.24346228600001,0 -36.598566744,-6.241584036,0 -36.59901949,-6.23850661800001,0 -36.598678659,-6.23440931799999,0 -36.599470797,-6.23195678799998,0 -36.601900676,-6.23116924699999,0 -36.6061781,-6.23076780899999,0 -36.60684658,-6.229718771,0 -36.606658683,-6.22830188399999,0 -36.605556083,-6.22735705599999,0 -36.600972796,-6.22624889400001,0 -36.599182358,-6.216071295,0 -36.599847926,-6.214625105,0 -36.603365436,-6.213084353,0 -36.604148166,-6.212102023,0 -36.607813646,-6.20364250399999,0 -36.613587344,-6.198088925,0 -36.616045024,-6.19689599399998,0 -36.61767805,-6.19541244800001,0 -36.618866414,-6.19236894799999,0 -36.6156615,-6.17464697200001,0 -36.616716526,-6.17077132099998,0 -36.618216352,-6.168291977,0 -36.625394848,-6.160398192,0 -36.626840522,-6.15836857499999,0 -36.627943493,-6.15534197199999,0 -36.627320822,-6.15147522500002,0 -36.622869743,-6.14085127300001,0 -36.62230717,-6.13176459799999,0 -36.610328479,-6.131597129,0 -36.608509369,-6.12789957999998,0 -36.60596641,-6.12446599,0 -36.604884488,-6.12400337599999,0 -36.602648254,-6.12568143199999,0 -36.601487141,-6.124883315,0 -36.59956992,-6.12512747700001,0 -36.597789764,-6.127141397,0 -36.594318972,-6.12775596700001,0 -36.592551396,-6.13014905899999,0 -36.592199089,-6.13398219199998,0 -36.592645815,-6.137111826,0 -36.591200344,-6.139573232,0 -36.591070894,-6.13979366399999,0 -36.58865745,-6.139574998,0 -36.588710769,-6.136739491,0 -36.586507215,-6.133679004,0 -36.583509258,-6.13131614100002,0 -36.5817422,-6.13074484500001,0 -36.580074842,-6.131570953,0 -36.579818679,-6.132446104,0 -36.580365066,-6.13618844099999,0 -36.581518372,-6.138487046,0 -36.581383094,-6.14098775700001,0 -36.580634431,-6.141317354,0 -36.578321663,-6.14141228599998,0 -36.577781999,-6.14103480200001,0 -36.574385816,-6.13701612099999,0 -36.575624065,-6.13491480999999,0 -36.572472908,-6.132026553,0 -36.571491376,-6.13329167,0 -36.570245046,-6.13228679799999,0 -36.567621599,-6.13248282800001,0 -36.56410701,-6.13148698399998,0 -36.56289369,-6.13289790600002,0 -36.560410737,-6.134242478,0 -36.558461232,-6.13266915400001,0 -36.556919518,-6.13268430200001,0 -36.554076397,-6.13131583899999,0 -36.55315944,-6.131353891,0 -36.552734401,-6.133059084,0 -36.552791701,-6.13515203599999,0 -36.552198216,-6.136622791,0 -36.550283084,-6.13661328500001,0 -36.549864897,-6.137196117,0 -36.549987165,-6.13778195300001,0 -36.551354826,-6.13899468500001,0 -36.551285661,-6.14051722200001,0 -36.550698851,-6.14122192299998,0 -36.548257734,-6.141504705,0 -36.54798107,-6.14379475499999,0 -36.547233201,-6.143749804,0 -36.54693267,-6.14306241599999,0 -36.54714559,-6.13997822300001,0 -36.54569769,-6.13784371099998,0 -36.545156898,-6.13793149500001,0 -36.544290056,-6.14102725999998,0 -36.542297153,-6.139725857,0 -36.539885363,-6.138919902,0 -36.53889168,-6.13787712600001,0 -36.538585101,-6.13656175899999,0 -36.539842809,-6.13453155400001,0 -36.537079065,-6.133573737,0 -36.535757899,-6.13119079500002,0 -36.533567202,-6.13053105599999,0 -36.530287781,-6.13039515700001,0 -36.528821295,-6.12695453800001,0 -36.52746072,-6.12577332500002,0 -36.527132415,-6.12372927899999,0 -36.522772725,-6.116852346,0 -36.522858338,-6.116266148,0 -36.52360892,-6.116228961,0 -36.526437105,-6.117447954,0 -36.52749657,-6.116851386,0 -36.526305096,-6.11380340100001,0 -36.521041998,-6.11317286299999,0 -36.520556343,-6.112208337,0 -36.522927628,-6.110306203,0 -36.522125416,-6.10823886899999,0 -36.52133676,-6.107901355,0 -36.51850164,-6.10888981499999,0 -36.516940996,-6.110310403,0 -36.514694863,-6.10839107800001,0 -36.515871413,-6.10610341200002,0 -36.515838611,-6.104354038,0 -36.518361665,-6.10226203799999,0 -36.51616043,-6.102081309,0 -36.515717306,-6.101547026,0 -36.516206117,-6.10033523499999,0 -36.515711835,-6.09987113599998,0 -36.512851399,-6.10175464599999,0 -36.510802608,-6.10374630099999,0 -36.509930578,-6.103658694,0 -36.509306501,-6.10323812000001,0 -36.510375537,-6.10159650700002,0 -36.510062458,-6.10093052600001,0 -36.506327682,-6.099306672,0 -36.506573118,-6.100725358,0 -36.505777975,-6.10109580199999,0 -36.504988003,-6.10071677900001,0 -36.503916795,-6.09850296199999,0 -36.502670784,-6.098408948,0 -36.502529389,-6.09855586500001,0 -36.502302708,-6.09879351199999,0 -36.502101875,-6.09947463800001,0 -36.503510294,-6.10106429199998,0 -36.502923885,-6.10189599200002,0 -36.504608489,-6.102173114,0 -36.505354298,-6.10284560700001,0 -36.504685626,-6.10367735,0 -36.505553431,-6.104512729,0 -36.505035754,-6.10482952399999,0 -36.505090866,-6.105721795,0 -36.503652018,-6.10606875100001,0 -36.503103484,-6.10798238000001,0 -36.502233536,-6.10702242100002,0 -36.503284096,-6.104773367,0 -36.503434629,-6.103921214,0 -36.502937921,-6.103043765,0 -36.501939237,-6.10312167999999,0 -36.498316929,-6.10483687800002,0 -36.494966731,-6.10344452199998,0 -36.494378709,-6.104107529,0 -36.495579265,-6.10561376600001,0 -36.494716312,-6.107549521,0 -36.494134525,-6.107297127,0 -36.493520484,-6.10541661100001,0 -36.493020533,-6.10512267499999,0 -36.492561455,-6.10557872499999,0 -36.492523614,-6.10935310700001,0 -36.491769006,-6.11026595000002,0 -36.490442371,-6.10971803399999,0 -36.490028199,-6.108590733,0 -36.489283546,-6.10812750599998,0 -36.487177806,-6.11186597700001,0 -36.488699264,-6.11194101199999,0 -36.489283028,-6.112484835,0 -36.490473592,-6.11151036900001,0 -36.491847787,-6.11147533299999,0 -36.492131952,-6.11289428399999,0 -36.491789575,-6.11493696499999,0 -36.495795716,-6.11593321600001,0 -36.49432084,-6.11225779700002,0 -36.494469797,-6.111697001,0 -36.495052934,-6.11145058900002,0 -36.495716936,-6.111785095,0 -36.496876407,-6.11370683999999,0 -36.49791723,-6.11304670199999,0 -36.498165655,-6.113590481,0 -36.497425665,-6.11590010800001,0 -36.500251109,-6.11695643799998,0 -36.50308362,-6.11688554599999,0 -36.503673901,-6.11966118800001,0 -36.505086973,-6.12008477000001,0 -36.506338573,-6.119797788,0 -36.509046531,-6.121958987,0 -36.509173468,-6.12291750599999,0 -36.507259096,-6.12673833900001,0 -36.503298658,-6.137426046,0 -36.50184799,-6.13750177500001,0 -36.498829377,-6.13517420299999,0 -36.494553449,-6.13507522099999,0 -36.492043338,-6.13660230900001,0 -36.483976874,-6.13079120699999,0 -36.482081453,-6.13076053000001,0 -36.478514149,-6.128327007,0 -36.477943808,-6.125530666,0 -36.473483514,-6.12341691599999,0 -36.470452895,-6.12109801500001,0 -36.468726173,-6.12094384599998,0 -36.467473528,-6.121771803,0 -36.459902927,-6.11530118100001,0 -36.457906676,-6.11612060700001,0 -36.45715857,-6.11594944800001,0 -36.455955444,-6.11490140999999,0 -36.455606956,-6.113920671,0 -36.455024285,-6.11412551,0 -36.448852072,-6.112199839,0 -36.446641004,-6.11344037,0 -36.447796291,-6.11531926899999,0 -36.447628039,-6.11577991300002,0 -36.444625266,-6.11701554899999,0 -36.436539209,-6.115206323,0 -36.436335364,-6.11441428599999,0 -36.435937798,-6.11505443300002,0 -36.435941082,-6.11428528799999,0 -36.435351441,-6.114831274,0 -36.43515094,-6.11396674299999,0 -36.434315887,-6.11471422599999,0 -36.433820506,-6.11358724600001,0 -36.431966231,-6.114108418,0 -36.42897728,-6.112677125,0 -36.428484835,-6.11983880899998,0 -36.429117849,-6.12232529900002,0 -36.428821672,-6.12328144899999,0 -36.427026914,-6.124689394,0 -36.429345881,-6.12583023799999,0 -36.431358048,-6.12960799999999,0 -36.427203054,-6.13136375,0 -36.42703319,-6.13203084400002,0 -36.427569451,-6.13290761600002,0 -36.433208167,-6.136684172,0 -36.434030788,-6.13877049700001,0 -36.433258251,-6.14095373800001,0 -36.432143431,-6.14213744700001,0 -36.42906728,-6.14178940900001,0 -36.427622584,-6.14077865699999,0 -36.425887863,-6.136233401,0 -36.42382515,-6.13280582400001,0 -36.424208423,-6.13093198700001,0 -36.41341399,-6.129555738,0 -36.412791379,-6.129335722,0 -36.411141846,-6.12836794600001,0 -36.408771559,-6.12558954900002,0 -36.407135947,-6.12313841899999,0 -36.405714274,-6.122516607,0 -36.404768013,-6.120369708,0 -36.401977188,-6.11880198399998,0 -36.399421048,-6.118664051,0 -36.398882039,-6.11824361,0 -36.398573781,-6.11749423699999,0 -36.398748331,-6.11550867499999,0 -36.399263208,-6.114715069,0 -36.402159765,-6.11328129700001,0 -36.404751787,-6.113104844,0 -36.405482858,-6.112359444,0 -36.405660641,-6.110838844,0 -36.407554074,-6.10993359,0 -36.407964693,-6.108718396,0 -36.410860084,-6.10747711499999,0 -36.411699792,-6.10420031699999,0 -36.353179048,-6.09884764599999,0 -36.347123392,-6.09829328300001,0 -36.343371488,-6.09794981499999,0 -36.335876351,-6.10207607199999,0 -36.328929655,-6.106469639,0 -36.320984044,-6.11246062000002,0 -36.304546702,-6.12073886900001,0 -36.295700304,-6.122166195,0 -36.256848897,-6.15801517400001,0 -36.257667715,-6.19879088200001,0 -36.258949306,-6.200977804,0 -36.263170415,-6.217237703,0 -36.264230513,-6.22015176799999,0 -36.266278049,-6.22363555100001,0 -36.267119359,-6.22727847999999,0 -36.267023264,-6.22929625800001,0 -36.266001939,-6.23087843799999,0 -36.26497069,-6.23247553600002,0 -36.262033058,-6.23702505200001,0 -36.25978197,-6.23959787300001,0 -36.258254538,-6.24322674999999,0 -36.258672807,-6.245813685,0 -36.260982946,-6.24849349900001,0 -36.265619365,-6.251021151,0 -36.268627039,-6.255461873,0 -36.269079235,-6.256129523,0 -36.271565994,-6.257837612,0 -36.274745651,-6.25914746399999,0 -36.278645592,-6.26215694600001,0 -36.279147535,-6.264907531,0 -36.281530002,-6.27049297100001,0 -36.28181641,-6.273483679,0 -36.283960135,-6.27470766199999,0 -36.289035093,-6.275782746,0 -36.291094801,-6.27700492100002,0 -36.292077099,-6.27870797299999,0 -36.291545296,-6.280967607,0 -36.291883997,-6.28258596800001,0 -36.29377244,-6.28348137500002,0 -36.293419085,-6.28541943,0 -36.295396583,-6.28583577000001,0 -36.294979626,-6.29210684599985,0 -36.2949790553204,-6.29210755330845,0 -36.292391096,-6.29525446099996,0 -36.2870462349999,-6.30106428499993,0 -36.2862247479999,-6.30195723199996,0 -36.2798727009999,-6.30886151899994,0 -36.279432495,-6.31030081799998,0 -36.279135442,-6.31762708899992,0 -36.2787533169999,-6.32704300799998,0 -36.276747453,-6.34043046799997,0 -36.277134482,-6.34462595299993,0 -36.2784774149999,-6.34935709599996,0 -36.2815524219999,-6.35460443899995,0 -36.29283924,-6.36481342099994,0 -36.295615867,-6.36862113899997,0 -36.296338385,-6.37041041399993,0 -36.2988131289999,-6.37654057499999,0 -36.299244551,-6.38205710799997,0 -36.2988575099999,-6.38460683399995,0 -36.2976398439999,-6.38729604599995,0 -36.295431766,-6.39012411699997,0 -36.29587978,-6.39271338399994,0 -36.29596945,-6.39323188799994,0 -36.29522141,-6.39456050799994,0 -36.29161056,-6.39599569499996,0 -36.2829197359999,-6.39741967999993,0 -36.2770910529999,-6.39837422299996,0 -36.2721582409999,-6.40106711299994,0 -36.269094584,-6.40188769199996,0 -36.268557265,-6.40191808699995,0 -36.2622440069999,-6.40227522199996,0 -36.261592365,-6.40231228199997,0 -36.259007265,-6.40477905399996,0 -36.251162869,-6.40442347899995,0 -36.249772072,-6.43735991299997,0 -36.2497692279999,-6.43735948399995,0 -36.24976609,-6.43735900999997,0 -36.249757143,-6.43735766199996,0 -36.24975425,-6.43735722499996,0 -36.249751058,-6.43735674399994,0 -36.249747935,-6.43735627299999,0 -36.2496089379999,-6.43733531299995,0 -36.249465222,-6.43731364099995,0 -36.249325644,-6.43729259299993,0 -36.249183315,-6.43727113099994,0 -36.2491655709999,-6.43726845499997,0 -36.249131738,-6.43726335299993,0 -36.249098212,-6.43725829699997,0 -36.2490641109999,-6.43725315499995,0 -36.249029497,-6.43724793499995,0 -36.248994825,-6.43724270699994,0 -36.248959407,-6.43723736599998,0 -36.2488897759999,-6.43722686599995,0 -36.248818855,-6.43721617099992,0 -36.248750499,-6.43720586299997,0 -36.248715763,-6.43720062499994,0 -36.248680017,-6.43719523499993,0 -36.248614592,-6.43718536899995,0 -36.248544151,-6.43717474699997,0 -36.2484761339999,-6.43716448999992,0 -36.2484010869999,-6.43715317299995,0 -36.248277881,-6.43713459399993,0 -36.2479013239999,-6.43707781099995,0 -36.247397674,-6.43700186299998,0 -36.2389084239999,-6.43572172199994,0 -36.2371889529999,-6.43546243399992,0 -36.2371846409999,-6.43546178399993,0 -36.237107588,-6.43545016499997,0 -36.229007914,-6.43422876999995,0 -36.2265349259999,-6.43402806399997,0 -36.2262754189999,-6.45210482999994,0 -36.226255658,-6.45225183099995,0 -36.2262442529999,-6.45310454499997,0 -36.226244133,-6.45311350499997,0 -36.2260499459999,-6.46763255199994,0 -36.225816751,-6.48366175399996,0 -36.225787397,-6.48565981699994,0 -36.2253757029999,-6.51368325999994,0 -36.2253724359999,-6.51416202299993,0 -36.225070248,-6.55845079699999,0 -36.2250639989999,-6.55936666699995,0 -36.225101024,-6.55949226699995,0 -36.234223705,-6.59483845999994,0 -36.234242104,-6.59493328499997,0 -36.234337051,-6.59542263599996,0 -36.2362970729999,-6.60552844999994,0 -36.237807808,-6.61128824199995,0 -36.239146299,-6.62083087899993,0 -36.2430676509999,-6.64185830899994,0 -36.2431227439999,-6.64215469099998,0 -36.243241665,-6.64279312899992,0 -36.25102276,-6.68456678699994,0 -36.252990069,-6.71479961499995,0 -36.256680076,-6.77180212599995,0 -36.2591257559999,-6.80958253199998,0 -36.259873383,-6.82128303799994,0 -36.2614378769999,-6.84552516599997,0 -36.2615814709999,-6.84581958499996,0 -36.273854527,-6.87127033499995,0 -36.2893065339999,-6.90331330499992,0 -36.2909194119999,-6.90500127799994,0 -36.2916203349999,-6.90573483499998,0 -36.2919929449999,-6.90612385499997,0 -36.2957947959999,-6.91591576699995,0 -36.2968162679999,-6.92556944899996,0 -36.299147005,-6.93173456999995,0 -36.3023552449999,-6.93493310899993,0 -36.309211004,-6.93935283899997,0 -36.3116803519999,-6.94020022899996,0 -36.3158745539999,-6.94027698099996,0 -36.320405131,-6.93954309699995,0 -36.324271414,-6.93891684299995,0 -36.3261055729999,-6.93892852399996,0 -36.325988583,-6.93994483399995,0 -36.327479377,-6.94221942799992,0 -36.334547877,-6.94742145199997,0 -36.343227504,-6.95299654799992,0 -36.3515302879999,-6.95594352099993,0 -36.3751327909999,-6.97116290699995,0 -36.3753077609999,-6.97127545199993,0 -36.394006331,-6.98333424699996,0 -36.4257652119999,-6.98751059099993,0 -36.444283334,-6.98994575399996,0 -36.4451135379999,-6.99005492699996,0 -36.476708011,-6.99420843199993,0 -36.476314637,-7.00043355199996,0 -36.488515379,-7.02716899999997,0 -36.487970666,-7.03231587099998,0 -36.487648136,-7.03534239099998,0 -36.4823929579999,-7.06507294399994,0 -36.472324132,-7.12203614999993,0 -36.4705033299999,-7.13231959299998,0 -36.4700470829999,-7.13286513299994,0 -36.4758489659999,-7.13833086899996,0 -36.477993066,-7.13976900399997,0 -36.4815969369999,-7.14373869099996,0 -36.48368608,-7.14468455499996,0 -36.485248365,-7.14875753099995,0 -36.484606051,-7.15253855399993,0 -36.48482145,-7.15429592599997,0 -36.486737841,-7.15606413399997,0 -36.488469612,-7.16040720999996,0 -36.4875502799999,-7.16281866299995,0 -36.4871928859999,-7.16632814499996,0 -36.487549988,-7.17242012199995,0 -36.4865197829999,-7.17527200299997,0 -36.4868861959999,-7.18070705399998,0 -36.485668967,-7.18602031299998,0 -36.4856535399999,-7.18865923899994,0 -36.4863254319999,-7.18997672099993,0 -36.4869975729999,-7.18993468299993,0 -36.5011536599999,-7.18904186099996,0 -36.514834916,-7.18745910099994,0 -36.561944329,-7.18066706299993,0 -36.5680395699999,-7.17927237499992,0 -36.58144225,-7.17620289999997,0 -36.5916432619999,-7.17261337499997,0 -36.595540382,-7.16478203599997,0 -36.6082487969999,-7.13924422999997,0 -36.613329823,-7.12903380999996,0 -36.637041671,-7.12981487199994,0 -36.662316102,-7.13064673099996,0 -36.6613147649999,-7.12829363499997,0 -36.661321178,-7.12709937299996,0 -36.661326577,-7.12590767199992,0 -36.6631191779999,-7.12247331699995,0 -36.6617105029999,-7.11762838599998,0 -36.662259704,-7.11701306299994,0 -36.662536224,-7.11670324999995,0 -36.663905004,-7.11644588399998,0 -36.6648665069999,-7.11552299799996,0 -36.6651470899999,-7.11393604299997,0 -36.664747259,-7.11181229299997,0 -36.6655846519999,-7.10863787399994,0 -36.670330856,-7.10210446999997,0 -36.6718438079999,-7.10078482899996,0 -36.6715752699999,-7.09985595399996,0 -36.669457853,-7.09951540999998,0 -36.6679515509999,-7.09977059399995,0 -36.666730097,-7.09804250099996,0 -36.6666132359999,-7.09433101499996,0 -36.668752307,-7.09030102899993,0 -36.6679615579999,-7.08446642399997,0 -36.6687964079999,-7.08155577999997,0 -36.6688066899999,-7.07956961299994,0 -36.669423788,-7.07897443799994,0 -36.6684720659999,-7.07830777499993,0 -36.6664208409999,-7.07829699899998,0 -36.6577625809999,-7.07381558399993,0 -36.658588542,-7.07275875399996,0 -36.6650157729999,-7.07212904399995,0 -36.66543138,-7.07107226199996,0 -36.657907719,-7.06216536899996,0 -36.6578488,-7.06209576099997,0 -36.657618349,-7.06182270799996,0 -36.660427538,-7.06044340799997,0 -36.66194016,-7.05820087499995,0 -36.6619522889999,-7.05594826499992,0 -36.659776848,-7.05381787899995,0 -36.6576095469999,-7.04996280699992,0 -36.675990767,-7.01495397599996,0 -36.679703592,-7.01396580899996,0 -36.683914892,-7.01208711199997,0 -36.685838882,-7.01186326199997,0 -36.686510638,-7.00953672499998,0 -36.6888970699999,-7.00879762799998,0 -36.6929960109999,-7.00891787499995,0 -36.703161214,-7.00734032499998,0 -36.725587592,-7.00385868499996,0 -36.725899735,-7.01057539099997,0 -36.73058887,-7.01919615299994,0 -36.7363349679999,-7.02271132999994,0 -36.742153688,-7.02529317599994,0 -36.7422584779999,-7.02844610799996,0 -36.74281862,-7.03296070299996,0 -36.7454759409999,-7.03641327099995,0 -36.748839126,-7.03902404599994,0 -36.752090085,-7.04039523499995,0 -36.753856465,-7.04268254099997,0 -36.754055541,-7.04294032699994,0 -36.753926438,-7.04576047899996,0 -36.7512221879999,-7.05138793199995,0 -36.750374254,-7.05865949899993,0 -36.752209605,-7.06392008699994,0 -36.752653413,-7.06799967999995,0 -36.7513292899999,-7.07991142299995,0 -36.7513168799999,-7.08002268899998,0 -36.751501345,-7.08024398999992,0 -36.753625191,-7.08278755399993,0 -36.773026428,-7.10602289599997,0 -36.778459706,-7.11252990799995,0 -36.810109064,-7.15044434099997,0 -36.82700798,-7.14683241399996,0 -36.831903573,-7.14544421599993,0 -36.833418551,-7.14522534399993,0 -36.8445181559999,-7.14654276399994,0 -36.846641662,-7.14838235899999,0 -36.8501828349999,-7.15060260899998,0 -36.8523157179999,-7.15033554299992,0 -36.858597694,-7.14917486899997,0 -36.860706211,-7.14892853299995,0 -36.8629765489999,-7.14942268299995,0 -36.875019847,-7.15705374599998,0 -36.880125559,-7.15934906399996,0 -36.89475777,-7.16017355399992,0 -36.896049831,-7.15728792399995,0 -36.897887028,-7.15541244499996,0 -36.898334368,-7.15495578299993,0 -36.905026525,-7.15202547899998,0 -36.911134465,-7.15225990899995,0 -36.9145385539999,-7.15392785399995,0 -36.9195074099999,-7.15525970499994,0 -36.922925366,-7.15334703499997,0 -36.925769959,-7.15294625099995,0 -36.928607239,-7.15399172499996,0 -36.9310259549999,-7.15345097499994,0 -36.9317388059999,-7.15276730199997,0 -36.931290131,-7.15007232499995,0 -36.926772591,-7.12305115899994,0 -36.926254425,-7.12217133799992,0 -36.9237366139999,-7.12092093799992,0 -36.92310279,-7.11834441399997,0 -36.9235892529999,-7.11798720299993,0 -36.924796968,-7.11710166799998,0 -36.9266759879999,-7.11654751799995,0 -36.9269924619999,-7.11561053299994,0 -36.926311426,-7.11410615899995,0 -36.926879422,-7.11279584499993,0 -36.9279498239999,-7.11161333299997,0 -36.9319564149999,-7.11075545999995,0 -36.9325212919999,-7.10988354499995,0 -36.931712352,-7.10919282499998,0 -36.9278388119999,-7.10786180799994,0 -36.9266508649999,-7.10791955299992,0 -36.9251541799999,-7.10716297999993,0 -36.924098331,-7.10553275399996,0 -36.923667622,-7.10404246699993,0 -36.923230017,-7.09994324599995,0 -36.922542418,-7.09779825099997,0 -36.922455207,-7.09520382699998,0 -36.922807925,-7.09383391199998,0 -36.922571271,-7.09267030099994,0</coordinates></LinearRing></outerBoundaryIs></Polygon></MultiGeometry>
  </Placemark>
</Folder>
</Document></kml>
