<?xml version="1.0" encoding="UTF-8"?>
<kml xmlns="http://www.opengis.net/kml/2.2">
  <Document>
    <name>campusshp</name>
    <Style id="icon-1899-0288D1-normal">
      <IconStyle>
        <color>ffd18802</color>
        <scale>1</scale>
        <Icon>
          <href>https://www.gstatic.com/mapspro/images/stock/503-wht-blank_maps.png</href>
        </Icon>
        <hotSpot x="32" xunits="pixels" y="64" yunits="insetPixels"/>
      </IconStyle>
      <LabelStyle>
        <scale>0</scale>
      </LabelStyle>
    </Style>
    <Style id="icon-1899-0288D1-highlight">
      <IconStyle>
        <color>ffd18802</color>
        <scale>1</scale>
        <Icon>
          <href>https://www.gstatic.com/mapspro/images/stock/503-wht-blank_maps.png</href>
        </Icon>
        <hotSpot x="32" xunits="pixels" y="64" yunits="insetPixels"/>
      </IconStyle>
      <LabelStyle>
        <scale>1</scale>
      </LabelStyle>
    </Style>
    <StyleMap id="icon-1899-0288D1">
      <Pair>
        <key>normal</key>
        <styleUrl>#icon-1899-0288D1-normal</styleUrl>
      </Pair>
      <Pair>
        <key>highlight</key>
        <styleUrl>#icon-1899-0288D1-highlight</styleUrl>
      </Pair>
    </StyleMap>
    <Placemark>
      <name>Campus II</name>
      <description><![CDATA[descrição: <br>fid: <br>CD_MUN: <br>NM_MUN: <br>SIGLA_UF: <br>AREA_KM2: <br>POP: <br>DENS: <br>LAT: <br>LONG_GMS: <br>LAT_GMS: <br>LONG: <br>MESO: <br>MICRO: <br>GENTILICO: ]]></description>
      <styleUrl>#icon-1899-0288D1</styleUrl>
      <ExtendedData>
        <Data name="descrição">
          <value/>
        </Data>
        <Data name="fid">
          <value/>
        </Data>
        <Data name="CD_MUN">
          <value/>
        </Data>
        <Data name="NM_MUN">
          <value/>
        </Data>
        <Data name="SIGLA_UF">
          <value/>
        </Data>
        <Data name="AREA_KM2">
          <value/>
        </Data>
        <Data name="POP">
          <value/>
        </Data>
        <Data name="DENS">
          <value/>
        </Data>
        <Data name="LAT">
          <value/>
        </Data>
        <Data name="LONG_GMS">
          <value/>
        </Data>
        <Data name="LAT_GMS">
          <value/>
        </Data>
        <Data name="LONG">
          <value/>
        </Data>
        <Data name="MESO">
          <value/>
        </Data>
        <Data name="MICRO">
          <value/>
        </Data>
        <Data name="GENTILICO">
          <value/>
        </Data>
      </ExtendedData>
      <Point>
        <coordinates>
          -35.8707824,-7.153923,0
        </coordinates>
      </Point>
    </Placemark>
    <Placemark>
      <name>Campus IV</name>
      <description><![CDATA[descrição: <br>fid: <br>CD_MUN: <br>NM_MUN: <br>SIGLA_UF: <br>AREA_KM2: <br>POP: <br>DENS: <br>LAT: <br>LONG_GMS: <br>LAT_GMS: <br>LONG: <br>MESO: <br>MICRO: <br>GENTILICO: ]]></description>
      <styleUrl>#icon-1899-0288D1</styleUrl>
      <ExtendedData>
        <Data name="descrição">
          <value/>
        </Data>
        <Data name="fid">
          <value/>
        </Data>
        <Data name="CD_MUN">
          <value/>
        </Data>
        <Data name="NM_MUN">
          <value/>
        </Data>
        <Data name="SIGLA_UF">
          <value/>
        </Data>
        <Data name="AREA_KM2">
          <value/>
        </Data>
        <Data name="POP">
          <value/>
        </Data>
        <Data name="DENS">
          <value/>
        </Data>
        <Data name="LAT">
          <value/>
        </Data>
        <Data name="LONG_GMS">
          <value/>
        </Data>
        <Data name="LAT_GMS">
          <value/>
        </Data>
        <Data name="LONG">
          <value/>
        </Data>
        <Data name="MESO">
          <value/>
        </Data>
        <Data name="MICRO">
          <value/>
        </Data>
        <Data name="GENTILICO">
          <value/>
        </Data>
      </ExtendedData>
      <Point>
        <coordinates>
          -37.7263564,-6.3516353,0
        </coordinates>
      </Point>
    </Placemark>
    <Placemark>
      <name>Campus V</name>
      <description><![CDATA[descrição: <br>fid: <br>CD_MUN: <br>NM_MUN: <br>SIGLA_UF: <br>AREA_KM2: <br>POP: <br>DENS: <br>LAT: <br>LONG_GMS: <br>LAT_GMS: <br>LONG: <br>MESO: <br>MICRO: <br>GENTILICO: ]]></description>
      <styleUrl>#icon-1899-0288D1</styleUrl>
      <ExtendedData>
        <Data name="descrição">
          <value/>
        </Data>
        <Data name="fid">
          <value/>
        </Data>
        <Data name="CD_MUN">
          <value/>
        </Data>
        <Data name="NM_MUN">
          <value/>
        </Data>
        <Data name="SIGLA_UF">
          <value/>
        </Data>
        <Data name="AREA_KM2">
          <value/>
        </Data>
        <Data name="POP">
          <value/>
        </Data>
        <Data name="DENS">
          <value/>
        </Data>
        <Data name="LAT">
          <value/>
        </Data>
        <Data name="LONG_GMS">
          <value/>
        </Data>
        <Data name="LAT_GMS">
          <value/>
        </Data>
        <Data name="LONG">
          <value/>
        </Data>
        <Data name="MESO">
          <value/>
        </Data>
        <Data name="MICRO">
          <value/>
        </Data>
        <Data name="GENTILICO">
          <value/>
        </Data>
      </ExtendedData>
      <Point>
        <coordinates>
          -34.8731676,-7.1584913,0
        </coordinates>
      </Point>
    </Placemark>
    <Placemark>
      <name>Campus III</name>
      <description><![CDATA[descrição: <br>fid: <br>CD_MUN: <br>NM_MUN: <br>SIGLA_UF: <br>AREA_KM2: <br>POP: <br>DENS: <br>LAT: <br>LONG_GMS: <br>LAT_GMS: <br>LONG: <br>MESO: <br>MICRO: <br>GENTILICO: ]]></description>
      <styleUrl>#icon-1899-0288D1</styleUrl>
      <ExtendedData>
        <Data name="descrição">
          <value/>
        </Data>
        <Data name="fid">
          <value/>
        </Data>
        <Data name="CD_MUN">
          <value/>
        </Data>
        <Data name="NM_MUN">
          <value/>
        </Data>
        <Data name="SIGLA_UF">
          <value/>
        </Data>
        <Data name="AREA_KM2">
          <value/>
        </Data>
        <Data name="POP">
          <value/>
        </Data>
        <Data name="DENS">
          <value/>
        </Data>
        <Data name="LAT">
          <value/>
        </Data>
        <Data name="LONG_GMS">
          <value/>
        </Data>
        <Data name="LAT_GMS">
          <value/>
        </Data>
        <Data name="LONG">
          <value/>
        </Data>
        <Data name="MESO">
          <value/>
        </Data>
        <Data name="MICRO">
          <value/>
        </Data>
        <Data name="GENTILICO">
          <value/>
        </Data>
      </ExtendedData>
      <Point>
        <coordinates>
          -35.4998892,-6.8676269,0
        </coordinates>
      </Point>
    </Placemark>
    <Placemark>
      <name>Câmpus VI</name>
      <description><![CDATA[descrição: <br>fid: <br>CD_MUN: <br>NM_MUN: <br>SIGLA_UF: <br>AREA_KM2: <br>POP: <br>DENS: <br>LAT: <br>LONG_GMS: <br>LAT_GMS: <br>LONG: <br>MESO: <br>MICRO: <br>GENTILICO: ]]></description>
      <styleUrl>#icon-1899-0288D1</styleUrl>
      <ExtendedData>
        <Data name="descrição">
          <value/>
        </Data>
        <Data name="fid">
          <value/>
        </Data>
        <Data name="CD_MUN">
          <value/>
        </Data>
        <Data name="NM_MUN">
          <value/>
        </Data>
        <Data name="SIGLA_UF">
          <value/>
        </Data>
        <Data name="AREA_KM2">
          <value/>
        </Data>
        <Data name="POP">
          <value/>
        </Data>
        <Data name="DENS">
          <value/>
        </Data>
        <Data name="LAT">
          <value/>
        </Data>
        <Data name="LONG_GMS">
          <value/>
        </Data>
        <Data name="LAT_GMS">
          <value/>
        </Data>
        <Data name="LONG">
          <value/>
        </Data>
        <Data name="MESO">
          <value/>
        </Data>
        <Data name="MICRO">
          <value/>
        </Data>
        <Data name="GENTILICO">
          <value/>
        </Data>
      </ExtendedData>
      <Point>
        <coordinates>
          -37.1134381,-7.9026368,0
        </coordinates>
      </Point>
    </Placemark>
    <Placemark>
      <name>Campus VII</name>
      <description><![CDATA[descrição: <br>fid: <br>CD_MUN: <br>NM_MUN: <br>SIGLA_UF: <br>AREA_KM2: <br>POP: <br>DENS: <br>LAT: <br>LONG_GMS: <br>LAT_GMS: <br>LONG: <br>MESO: <br>MICRO: <br>GENTILICO: ]]></description>
      <styleUrl>#icon-1899-0288D1</styleUrl>
      <ExtendedData>
        <Data name="descrição">
          <value/>
        </Data>
        <Data name="fid">
          <value/>
        </Data>
        <Data name="CD_MUN">
          <value/>
        </Data>
        <Data name="NM_MUN">
          <value/>
        </Data>
        <Data name="SIGLA_UF">
          <value/>
        </Data>
        <Data name="AREA_KM2">
          <value/>
        </Data>
        <Data name="POP">
          <value/>
        </Data>
        <Data name="DENS">
          <value/>
        </Data>
        <Data name="LAT">
          <value/>
        </Data>
        <Data name="LONG_GMS">
          <value/>
        </Data>
        <Data name="LAT_GMS">
          <value/>
        </Data>
        <Data name="LONG">
          <value/>
        </Data>
        <Data name="MESO">
          <value/>
        </Data>
        <Data name="MICRO">
          <value/>
        </Data>
        <Data name="GENTILICO">
          <value/>
        </Data>
      </ExtendedData>
      <Point>
        <coordinates>
          -37.2652818,-7.0215889,0
        </coordinates>
      </Point>
    </Placemark>
    <Placemark>
      <name>Campus VIII </name>
      <description><![CDATA[descrição: <br>fid: <br>CD_MUN: <br>NM_MUN: <br>SIGLA_UF: <br>AREA_KM2: <br>POP: <br>DENS: <br>LAT: <br>LONG_GMS: <br>LAT_GMS: <br>LONG: <br>MESO: <br>MICRO: <br>GENTILICO: ]]></description>
      <styleUrl>#icon-1899-0288D1</styleUrl>
      <ExtendedData>
        <Data name="descrição">
          <value/>
        </Data>
        <Data name="fid">
          <value/>
        </Data>
        <Data name="CD_MUN">
          <value/>
        </Data>
        <Data name="NM_MUN">
          <value/>
        </Data>
        <Data name="SIGLA_UF">
          <value/>
        </Data>
        <Data name="AREA_KM2">
          <value/>
        </Data>
        <Data name="POP">
          <value/>
        </Data>
        <Data name="DENS">
          <value/>
        </Data>
        <Data name="LAT">
          <value/>
        </Data>
        <Data name="LONG_GMS">
          <value/>
        </Data>
        <Data name="LAT_GMS">
          <value/>
        </Data>
        <Data name="LONG">
          <value/>
        </Data>
        <Data name="MESO">
          <value/>
        </Data>
        <Data name="MICRO">
          <value/>
        </Data>
        <Data name="GENTILICO">
          <value/>
        </Data>
      </ExtendedData>
      <Point>
        <coordinates>
          -35.7324759,-6.535202,0
        </coordinates>
      </Point>
    </Placemark>
    <Placemark>
      <name>Campus I</name>
      <description><![CDATA[descrição: <br>fid: <br>CD_MUN: <br>NM_MUN: <br>SIGLA_UF: <br>AREA_KM2: <br>POP: <br>DENS: <br>LAT: <br>LONG_GMS: <br>LAT_GMS: <br>LONG: <br>MESO: <br>MICRO: <br>GENTILICO: ]]></description>
      <styleUrl>#icon-1899-0288D1</styleUrl>
      <ExtendedData>
        <Data name="descrição">
          <value/>
        </Data>
        <Data name="fid">
          <value/>
        </Data>
        <Data name="CD_MUN">
          <value/>
        </Data>
        <Data name="NM_MUN">
          <value/>
        </Data>
        <Data name="SIGLA_UF">
          <value/>
        </Data>
        <Data name="AREA_KM2">
          <value/>
        </Data>
        <Data name="POP">
          <value/>
        </Data>
        <Data name="DENS">
          <value/>
        </Data>
        <Data name="LAT">
          <value/>
        </Data>
        <Data name="LONG_GMS">
          <value/>
        </Data>
        <Data name="LAT_GMS">
          <value/>
        </Data>
        <Data name="LONG">
          <value/>
        </Data>
        <Data name="MESO">
          <value/>
        </Data>
        <Data name="MICRO">
          <value/>
        </Data>
        <Data name="GENTILICO">
          <value/>
        </Data>
      </ExtendedData>
      <Point>
        <coordinates>
          -35.9173583,-7.2088005,0
        </coordinates>
      </Point>
    </Placemark>
  </Document>
</kml>
